{"type": "FeatureCollection", "features": [ {"type": "Feature", "properties": {"norad_id": 33825, "name": "COSMOS 2251 DEB", "group": "cosmos-2251-debris", "lat": 66.49444045516961, "lon": 159.24068889813293, "alt_km": 684.9251571327304, "timestamp": "2025-12-16T10:53:45.863755+00:00", "meta": {"OBJECT_NAME": "COSMOS 2251 DEB", "OBJECT_ID": "1993-036BS", "EPOCH": "2025-12-15T20:31:30.810144", "MEAN_MOTION": 14.69790947, "ECCENTRICITY": 0.00846905, "INCLINATION": 73.9853, "RA_OF_ASC_NODE": 21.7328, "ARG_OF_PERICENTER": 348.0359, "MEAN_ANOMALY": 191.5066, "EPHEMERIS_TYPE": 0, "CLASSIFICATION_TYPE": "U", "NORAD_CAT_ID": 33825, "ELEMENT_SET_NO": 999, "REV_AT_EPOCH": 88925, "BSTAR": 0.00052900736, "MEAN_MOTION_DOT": 3.303e-05, "MEAN_MOTION_DDOT": 0}, "tle": {"line1": "1 33825U 93036BS  25349.85521771  .00003303  00000+0  52901-3 0  9999", "line2": "2 33825  73.9853  21.7328 0084690 348.0359 191.5066 14.69790947889256"}}, "geometry": {"type": "Point", "coordinates": [159.24068889813293, 66.49444045516961]}}, {"type": "Feature", "properties": {"norad_id": 33826, "name": "COSMOS 2251 DEB", "group": "cosmos-2251-debris", "lat": 60.01604826364247, "lon": -166.78712509632808, "alt_km": 662.5174038044779, "timestamp": "2025-12-16T10:53:45.863766+00:00", "meta": {"OBJECT_NAME": "COSMOS 2251 DEB", "OBJECT_ID": "1993-036BT", "EPOCH": "2025-12-15T11:45:57.504096", "MEAN_MOTION": 14.5173711, "ECCENTRICITY": 0.00828737, "INCLINATION": 74.0652, "RA_OF_ASC_NODE": 44.7049, "ARG_OF_PERICENTER": 88.1555, "MEAN_ANOMALY": 32.2941, "EPHEMERIS_TYPE": 0, "CLASSIFICATION_TYPE": "U", "NORAD_CAT_ID": 33826, "ELEMENT_SET_NO": 999, "REV_AT_EPOCH": 87809, "BSTAR": 0.00055825428, "MEAN_MOTION_DOT": 2.317e-05, "MEAN_MOTION_DDOT": 0}, "tle": {"line1": "1 33826U 93036BT  25349.49024889  .00002317  00000+0  55825-3 0  9990", "line2": "2 33826  74.0652  44.7049 0082873  88.1555  32.2941 14.51737110878099"}}, "geometry": {"type": "Point", "coordinates": [-166.78712509632808, 60.01604826364247]}}, {"type": "Feature", "properties": {"norad_id": 33828, "name": "COSMOS 2251 DEB", "group": "cosmos-2251-debris", "lat": -73.78155672492758, "lon": 151.63548510134137, "alt_km": 733.0468317199784, "timestamp": "2025-12-16T10:53:45.863777+00:00", "meta": {"OBJECT_NAME": "COSMOS 2251 DEB", "OBJECT_ID": "1993-036BV", "EPOCH": "2025-12-15T18:59:24.293760", "MEAN_MOTION": 14.44343366, "ECCENTRICITY": 0.00294851, "INCLINATION": 74.0467, "RA_OF_ASC_NODE": 232.4157, "ARG_OF_PERICENTER": 304.9101, "MEAN_ANOMALY": 123.5111, "EPHEMERIS_TYPE": 0, "CLASSIFICATION_TYPE": "U", "NORAD_CAT_ID": 33828, "ELEMENT_SET_NO": 999, "REV_AT_EPOCH": 88357, "BSTAR": 0.00033974912, "MEAN_MOTION_DOT": 1.149e-05, "MEAN_MOTION_DDOT": 0}, "tle": {"line1": "1 33828U 93036BV  25349.79125340  .00001149  00000+0  33975-3 0  9993", "line2": "2 33828  74.0467 232.4157 0029485 304.9101 123.5111 14.44343366883577"}}, "geometry": {"type": "Point", "coordinates": [151.63548510134137, -73.78155672492758]}}, {"type": "Feature", "properties": {"norad_id": 33830, "name": "COSMOS 2251 DEB", "group": "cosmos-2251-debris", "lat": -40.9663802051438, "lon": 57.479445118726574, "alt_km": 659.7655405074411, "timestamp": "2025-12-16T10:53:45.863787+00:00", "meta": {"OBJECT_NAME": "COSMOS 2251 DEB", "OBJECT_ID": "1993-036BX", "EPOCH": "2025-12-15T19:35:21.896160", "MEAN_MOTION": 14.76936711, "ECCENTRICITY": 0.0042468, "INCLINATION": 74.032, "RA_OF_ASC_NODE": 224.3341, "ARG_OF_PERICENTER": 343.7569, "MEAN_ANOMALY": 89.938, "EPHEMERIS_TYPE": 0, "CLASSIFICATION_TYPE": "U", "NORAD_CAT_ID": 33830, "ELEMENT_SET_NO": 999, "REV_AT_EPOCH": 89517, "BSTAR": 0.00054704458, "MEAN_MOTION_DOT": 3.875e-05, "MEAN_MOTION_DDOT": 0}, "tle": {"line1": "1 33830U 93036BX  25349.81622565  .00003875  00000+0  54704-3 0  9991", "line2": "2 33830  74.0320 224.3341 0042468 343.7569  89.9380 14.76936711895177"}}, "geometry": {"type": "Point", "coordinates": [57.479445118726574, -40.9663802051438]}}, {"type": "Feature", "properties": {"norad_id": 33832, "name": "COSMOS 2251 DEB", "group": "cosmos-2251-debris", "lat": 53.160746098260475, "lon": -134.6765023740297, "alt_km": 702.9794624668111, "timestamp": "2025-12-16T10:53:45.863803+00:00", "meta": {"OBJECT_NAME": "COSMOS 2251 DEB", "OBJECT_ID": "1993-036BZ", "EPOCH": "2025-12-15T21:32:44.970144", "MEAN_MOTION": 14.60686885, "ECCENTRICITY": 0.00246156, "INCLINATION": 74.054, "RA_OF_ASC_NODE": 203.9489, "ARG_OF_PERICENTER": 234.3641, "MEAN_ANOMALY": 138.1764, "EPHEMERIS_TYPE": 0, "CLASSIFICATION_TYPE": "U", "NORAD_CAT_ID": 33832, "ELEMENT_SET_NO": 999, "REV_AT_EPOCH": 88471, "BSTAR": 0.00088590389, "MEAN_MOTION_DOT": 4.307e-05, "MEAN_MOTION_DDOT": 0}, "tle": {"line1": "1 33832U 93036BZ  25349.89774271  .00004307  00000+0  88590-3 0  9994", "line2": "2 33832  74.0540 203.9489 0024615 234.3641 138.1764 14.60686885884717"}}, "geometry": {"type": "Point", "coordinates": [-134.6765023740297, 53.160746098260475]}}, {"type": "Feature", "properties": {"norad_id": 33835, "name": "COSMOS 2251 DEB", "group": "cosmos-2251-debris", "lat": -73.66575196152984, "lon": 16.74185007557956, "alt_km": 715.7977670357823, "timestamp": "2025-12-16T10:53:45.863826+00:00", "meta": {"OBJECT_NAME": "COSMOS 2251 DEB", "OBJECT_ID": "1993-036CC", "EPOCH": "2025-12-15T09:18:19.262016", "MEAN_MOTION": 14.62281249, "ECCENTRICITY": 0.00544618, "INCLINATION": 74.057, "RA_OF_ASC_NODE": 96.0441, "ARG_OF_PERICENTER": 148.831, "MEAN_ANOMALY": 273.4087, "EPHEMERIS_TYPE": 0, "CLASSIFICATION_TYPE": "U", "NORAD_CAT_ID": 33835, "ELEMENT_SET_NO": 999, "REV_AT_EPOCH": 88828, "BSTAR": 0.00071750677, "MEAN_MOTION_DOT": 3.669e-05, "MEAN_MOTION_DDOT": 0}, "tle": {"line1": "1 33835U 93036CC  25349.38772294  .00003669  00000+0  71751-3 0  9995", "line2": "2 33835  74.0570  96.0441 0054461 148.8310 273.4087 14.62281249888280"}}, "geometry": {"type": "Point", "coordinates": [16.74185007557956, -73.66575196152984]}}, {"type": "Feature", "properties": {"norad_id": 33836, "name": "COSMOS 2251 DEB", "group": "cosmos-2251-debris", "lat": 10.153576471683483, "lon": 68.67519137288735, "alt_km": 625.0456613450351, "timestamp": "2025-12-16T10:53:45.863847+00:00", "meta": {"OBJECT_NAME": "COSMOS 2251 DEB", "OBJECT_ID": "1993-036CD", "EPOCH": "2025-12-15T19:48:39.845088", "MEAN_MOTION": 14.79679286, "ECCENTRICITY": 0.00225824, "INCLINATION": 73.9975, "RA_OF_ASC_NODE": 252.8611, "ARG_OF_PERICENTER": 104.8956, "MEAN_ANOMALY": 317.4306, "EPHEMERIS_TYPE": 0, "CLASSIFICATION_TYPE": "U", "NORAD_CAT_ID": 33836, "ELEMENT_SET_NO": 999, "REV_AT_EPOCH": 64134, "BSTAR": 0.00077859046, "MEAN_MOTION_DOT": 5.841e-05, "MEAN_MOTION_DDOT": 0}, "tle": {"line1": "1 33836U 93036CD  25349.82546117  .00005841  00000+0  77859-3 0  9997", "line2": "2 33836  73.9975 252.8611 0022582 104.8956 317.4306 14.79679286641343"}}, "geometry": {"type": "Point", "coordinates": [68.67519137288735, 10.153576471683483]}}, {"type": "Feature", "properties": {"norad_id": 33837, "name": "COSMOS 2251 DEB", "group": "cosmos-2251-debris", "lat": 55.41023744767746, "lon": -155.95957148321884, "alt_km": 739.4466657462244, "timestamp": "2025-12-16T10:53:45.863865+00:00", "meta": {"OBJECT_NAME": "COSMOS 2251 DEB", "OBJECT_ID": "1993-036CE", "EPOCH": "2025-12-15T14:28:36.708096", "MEAN_MOTION": 14.50707738, "ECCENTRICITY": 0.0035894, "INCLINATION": 74.013, "RA_OF_ASC_NODE": 50.2072, "ARG_OF_PERICENTER": 271.4719, "MEAN_ANOMALY": 88.233, "EPHEMERIS_TYPE": 0, "CLASSIFICATION_TYPE": "U", "NORAD_CAT_ID": 33837, "ELEMENT_SET_NO": 999, "REV_AT_EPOCH": 88837, "BSTAR": 0.00025503195, "MEAN_MOTION_DOT": 9.82e-06, "MEAN_MOTION_DDOT": 0}, "tle": {"line1": "1 33837U 93036CE  25349.60320264  .00000982  00000+0  25503-3 0  9997", "line2": "2 33837  74.0130  50.2072 0035894 271.4719  88.2330 14.50707738888377"}}, "geometry": {"type": "Point", "coordinates": [-155.95957148321884, 55.41023744767746]}}, {"type": "Feature", "properties": {"norad_id": 33838, "name": "COSMOS 2251 DEB", "group": "cosmos-2251-debris", "lat": -35.63946730800999, "lon": 131.01469999451302, "alt_km": 726.7038600160549, "timestamp": "2025-12-16T10:53:45.863876+00:00", "meta": {"OBJECT_NAME": "COSMOS 2251 DEB", "OBJECT_ID": "1993-036CF", "EPOCH": "2025-12-15T20:50:58.728192", "MEAN_MOTION": 14.48373618, "ECCENTRICITY": 0.00274506, "INCLINATION": 74.0362, "RA_OF_ASC_NODE": 143.9535, "ARG_OF_PERICENTER": 265.381, "MEAN_ANOMALY": 246.7104, "EPHEMERIS_TYPE": 0, "CLASSIFICATION_TYPE": "U", "NORAD_CAT_ID": 33838, "ELEMENT_SET_NO": 999, "REV_AT_EPOCH": 88614, "BSTAR": 0.00033689006, "MEAN_MOTION_DOT": 1.239e-05, "MEAN_MOTION_DDOT": 0}, "tle": {"line1": "1 33838U 93036CF  25349.86873528  .00001239  00000+0  33689-3 0  9992", "line2": "2 33838  74.0362 143.9535 0027450 265.3810 246.7104 14.48373618886148"}}, "geometry": {"type": "Point", "coordinates": [131.01469999451302, -35.63946730800999]}}, {"type": "Feature", "properties": {"norad_id": 33839, "name": "COSMOS 2251 DEB", "group": "cosmos-2251-debris", "lat": 68.91320123215674, "lon": -28.58138361368842, "alt_km": 725.5186181411109, "timestamp": "2025-12-16T10:53:45.863886+00:00", "meta": {"OBJECT_NAME": "COSMOS 2251 DEB", "OBJECT_ID": "1993-036CG", "EPOCH": "2025-12-15T23:31:16.633632", "MEAN_MOTION": 14.64428379, "ECCENTRICITY": 0.00852003, "INCLINATION": 74.0379, "RA_OF_ASC_NODE": 200.2537, "ARG_OF_PERICENTER": 311.5758, "MEAN_ANOMALY": 174.3068, "EPHEMERIS_TYPE": 0, "CLASSIFICATION_TYPE": "U", "NORAD_CAT_ID": 33839, "ELEMENT_SET_NO": 999, "REV_AT_EPOCH": 89627, "BSTAR": 0.00020500092, "MEAN_MOTION_DOT": 1.109e-05, "MEAN_MOTION_DDOT": 0}, "tle": {"line1": "1 33839U 93036CG  25349.98005363  .00001109  00000+0  20500-3 0  9994", "line2": "2 33839  74.0379 200.2537 0085200 311.5758 174.3068 14.64428379896271"}}, "geometry": {"type": "Point", "coordinates": [-28.58138361368842, 68.91320123215674]}}]}